{"type": "FeatureCollection", "features": [ {"type": "Feature", "properties": {"norad_id": 36254, "name": "FENGYUN 1C DEB", "group": "fengyun-1c-debris", "lat": 35.162640208698555, "lon": -58.49942673753887, "alt_km": 476.11519724545906, "timestamp": "2025-12-18T15:47:11.511502+00:00", "meta": {"OBJECT_NAME": "FENGYUN 1C DEB", "OBJECT_ID": "1999-025DWF", "EPOCH": "2025-12-05T14:18:33.769152", "MEAN_MOTION": 15.16034114, "ECCENTRICITY": 0.00460205, "INCLINATION": 99.5281, "RA_OF_ASC_NODE": 291.8918, "ARG_OF_PERICENTER": 66.714, "MEAN_ANOMALY": 293.892, "EPHEMERIS_TYPE": 0, "CLASSIFICATION_TYPE": "U", "NORAD_CAT_ID": 36254, "ELEMENT_SET_NO": 999, "REV_AT_EPOCH": 60668, "BSTAR": 0.005730812, "MEAN_MOTION_DOT": 0.00114745, "MEAN_MOTION_DDOT": 0}, "tle": {"line1": "1 36254U 99025DWF 25339.59622418  .00114745  00000+0  57308-2 0  9990", "line2": "2 36254  99.5281 291.8918 0046020  66.7140 293.8920 15.16034114606685"}}, "geometry": {"type": "Point", "coordinates": [-58.49942673753887, 35.162640208698555]}}, {"type": "Feature", "properties": {"norad_id": 36255, "name": "FENGYUN 1C DEB", "group": "fengyun-1c-debris", "lat": -9.900532994091687, "lon": 92.20683969259875, "alt_km": 740.6784473375365, "timestamp": "2025-12-18T15:47:11.511512+00:00", "meta": {"OBJECT_NAME": "FENGYUN 1C DEB", "OBJECT_ID": "1999-025DWG", "EPOCH": "2025-12-16T14:59:38.080320", "MEAN_MOTION": 14.36585765, "ECCENTRICITY": 0.00640168, "INCLINATION": 99.4346, "RA_OF_ASC_NODE": 271.6446, "ARG_OF_PERICENTER": 152.0698, "MEAN_ANOMALY": 328.9861, "EPHEMERIS_TYPE": 0, "CLASSIFICATION_TYPE": "U", "NORAD_CAT_ID": 36255, "ELEMENT_SET_NO": 999, "REV_AT_EPOCH": 64066, "BSTAR": 0.00053957267, "MEAN_MOTION_DOT": 1.573e-05, "MEAN_MOTION_DDOT": 0}, "tle": {"line1": "1 36255U 99025DWG 25350.62474630  .00001573  00000+0  53957-3 0  9990", "line2": "2 36255  99.4346 271.6446 0064016 152.0698 328.9861 14.36585765640665"}}, "geometry": {"type": "Point", "coordinates": [92.20683969259875, -9.900532994091687]}}, {"type": "Feature", "properties": {"norad_id": 36258, "name": "FENGYUN 1C DEB", "group": "fengyun-1c-debris", "lat": 42.70954621102388, "lon": 14.365470720202628, "alt_km": 586.6123398700392, "timestamp": "2025-12-18T15:47:11.511522+00:00", "meta": {"OBJECT_NAME": "FENGYUN 1C DEB", "OBJECT_ID": "1999-025DWK", "EPOCH": "2025-12-18T07:26:59.951040", "MEAN_MOTION": 14.74877851, "ECCENTRICITY": 0.01735744, "INCLINATION": 99.0864, "RA_OF_ASC_NODE": 22.4711, "ARG_OF_PERICENTER": 108.4242, "MEAN_ANOMALY": 253.592, "EPHEMERIS_TYPE": 0, "CLASSIFICATION_TYPE": "U", "NORAD_CAT_ID": 36258, "ELEMENT_SET_NO": 999, "REV_AT_EPOCH": 90904, "BSTAR": 0.00023742116, "MEAN_MOTION_DOT": 1.958e-05, "MEAN_MOTION_DDOT": 0}, "tle": {"line1": "1 36258U 99025DWK 25352.31041610  .00001958  00000+0  23742-3 0  9995", "line2": "2 36258  99.0864  22.4711 0173574 108.4242 253.5920 14.74877851909047"}}, "geometry": {"type": "Point", "coordinates": [14.365470720202628, 42.70954621102388]}}, {"type": "Feature", "properties": {"norad_id": 36260, "name": "FENGYUN 1C DEB", "group": "fengyun-1c-debris", "lat": 10.835841249174539, "lon": -7.004726849660279, "alt_km": 850.7322653241654, "timestamp": "2025-12-18T15:47:11.511532+00:00", "meta": {"OBJECT_NAME": "FENGYUN 1C DEB", "OBJECT_ID": "1999-025DWM", "EPOCH": "2025-12-18T05:33:18.295200", "MEAN_MOTION": 14.15377011, "ECCENTRICITY": 0.00151295, "INCLINATION": 98.6611, "RA_OF_ASC_NODE": 354.2531, "ARG_OF_PERICENTER": 232.7315, "MEAN_ANOMALY": 127.248, "EPHEMERIS_TYPE": 0, "CLASSIFICATION_TYPE": "U", "NORAD_CAT_ID": 36260, "ELEMENT_SET_NO": 999, "REV_AT_EPOCH": 87886, "BSTAR": 0.00015385243, "MEAN_MOTION_DOT": 2.57e-06, "MEAN_MOTION_DDOT": 0}, "tle": {"line1": "1 36260U 99025DWM 25352.23146175  .00000257  00000+0  15385-3 0  9996", "line2": "2 36260  98.6611 354.2531 0015129 232.7315 127.2480 14.15377011878865"}}, "geometry": {"type": "Point", "coordinates": [-7.004726849660279, 10.835841249174539]}}, {"type": "Feature", "properties": {"norad_id": 36261, "name": "FENGYUN 1C DEB", "group": "fengyun-1c-debris", "lat": 78.24694176679783, "lon": 170.47808863354265, "alt_km": 840.0757924061409, "timestamp": "2025-12-18T15:47:11.511542+00:00", "meta": {"OBJECT_NAME": "FENGYUN 1C DEB", "OBJECT_ID": "1999-025DWN", "EPOCH": "2025-12-13T22:57:12.812256", "MEAN_MOTION": 13.45480991, "ECCENTRICITY": 0.03556009, "INCLINATION": 101.3652, "RA_OF_ASC_NODE": 240.3219, "ARG_OF_PERICENTER": 72.4151, "MEAN_ANOMALY": 291.5485, "EPHEMERIS_TYPE": 0, "CLASSIFICATION_TYPE": "U", "NORAD_CAT_ID": 36261, "ELEMENT_SET_NO": 999, "REV_AT_EPOCH": 84449, "BSTAR": 0.00068349955, "MEAN_MOTION_DOT": 5.4e-06, "MEAN_MOTION_DDOT": 0}, "tle": {"line1": "1 36261U 99025DWN 25347.95639829  .00000540  00000+0  68350-3 0  9998", "line2": "2 36261 101.3652 240.3219 0355600  72.4151 291.5485 13.45480991844495"}}, "geometry": {"type": "Point", "coordinates": [170.47808863354265, 78.24694176679783]}}, {"type": "Feature", "properties": {"norad_id": 36262, "name": "FENGYUN 1C DEB", "group": "fengyun-1c-debris", "lat": 68.1860585739068, "lon": -149.90185411540557, "alt_km": 834.8085156664902, "timestamp": "2025-12-18T15:47:11.511552+00:00", "meta": {"OBJECT_NAME": "FENGYUN 1C DEB", "OBJECT_ID": "1999-025DWP", "EPOCH": "2025-12-16T21:24:39.631968", "MEAN_MOTION": 14.2781161, "ECCENTRICITY": 0.00597022, "INCLINATION": 98.9611, "RA_OF_ASC_NODE": 231.5054, "ARG_OF_PERICENTER": 263.2226, "MEAN_ANOMALY": 96.2158, "EPHEMERIS_TYPE": 0, "CLASSIFICATION_TYPE": "U", "NORAD_CAT_ID": 36262, "ELEMENT_SET_NO": 999, "REV_AT_EPOCH": 89556, "BSTAR": 0.00025429825, "MEAN_MOTION_DOT": 5.93e-06, "MEAN_MOTION_DDOT": 0}, "tle": {"line1": "1 36262U 99025DWP 25350.89212537  .00000593  00000+0  25430-3 0  9999", "line2": "2 36262  98.9611 231.5054 0059702 263.2226  96.2158 14.27811610895566"}}, "geometry": {"type": "Point", "coordinates": [-149.90185411540557, 68.1860585739068]}}, {"type": "Feature", "properties": {"norad_id": 36263, "name": "FENGYUN 1C DEB", "group": "fengyun-1c-debris", "lat": -77.53972376865845, "lon": 8.225488931770775, "alt_km": 722.0435802079865, "timestamp": "2025-12-18T15:47:11.511562+00:00", "meta": {"OBJECT_NAME": "FENGYUN 1C DEB", "OBJECT_ID": "1999-025DWQ", "EPOCH": "2025-12-14T02:36:43.363008", "MEAN_MOTION": 14.45667269, "ECCENTRICITY": 0.00359904, "INCLINATION": 99.0019, "RA_OF_ASC_NODE": 229.2427, "ARG_OF_PERICENTER": 260.9773, "MEAN_ANOMALY": 98.7343, "EPHEMERIS_TYPE": 0, "CLASSIFICATION_TYPE": "U", "NORAD_CAT_ID": 36263, "ELEMENT_SET_NO": 999, "REV_AT_EPOCH": 88005, "BSTAR": 0.0021495067, "MEAN_MOTION_DOT": 7.623e-05, "MEAN_MOTION_DDOT": 0}, "tle": {"line1": "1 36263U 99025DWQ 25348.10883522  .00007623  00000+0  21495-2 0  9996", "line2": "2 36263  99.0019 229.2427 0035990 260.9773  98.7343 14.45667269880053"}}, "geometry": {"type": "Point", "coordinates": [8.225488931770775, -77.53972376865845]}}, {"type": "Feature", "properties": {"norad_id": 36267, "name": "FENGYUN 1C DEB", "group": "fengyun-1c-debris", "lat": 59.36468544448965, "lon": -74.97742176349851, "alt_km": 918.4679881761595, "timestamp": "2025-12-18T15:47:11.511572+00:00", "meta": {"OBJECT_NAME": "FENGYUN 1C DEB", "OBJECT_ID": "1999-025DWU", "EPOCH": "2025-12-17T02:18:42.156000", "MEAN_MOTION": 14.09111328, "ECCENTRICITY": 0.0126413, "INCLINATION": 98.559, "RA_OF_ASC_NODE": 298.2704, "ARG_OF_PERICENTER": 197.9977, "MEAN_ANOMALY": 227.0895, "EPHEMERIS_TYPE": 0, "CLASSIFICATION_TYPE": "U", "NORAD_CAT_ID": 36267, "ELEMENT_SET_NO": 999, "REV_AT_EPOCH": 86591, "BSTAR": 0.00083999853, "MEAN_MOTION_DOT": 1.528e-05, "MEAN_MOTION_DDOT": 0}, "tle": {"line1": "1 36267U 99025DWU 25351.09632125  .00001528  00000+0  84000-3 0  9993", "line2": "2 36267  98.5590 298.2704 0126413 197.9977 227.0895 14.09111328865912"}}, "geometry": {"type": "Point", "coordinates": [-74.97742176349851, 59.36468544448965]}}, {"type": "Feature", "properties": {"norad_id": 36269, "name": "FENGYUN 1C DEB", "group": "fengyun-1c-debris", "lat": -13.483028800874713, "lon": 112.66202759237366, "alt_km": 743.1923250492864, "timestamp": "2025-12-18T15:47:11.511582+00:00", "meta": {"OBJECT_NAME": "FENGYUN 1C DEB", "OBJECT_ID": "1999-025DWW", "EPOCH": "2025-12-14T01:28:51.707712", "MEAN_MOTION": 14.27043075, "ECCENTRICITY": 0.02331074, "INCLINATION": 99.1079, "RA_OF_ASC_NODE": 290.0784, "ARG_OF_PERICENTER": 275.9651, "MEAN_ANOMALY": 81.5008, "EPHEMERIS_TYPE": 0, "CLASSIFICATION_TYPE": "U", "NORAD_CAT_ID": 36269, "ELEMENT_SET_NO": 999, "REV_AT_EPOCH": 87735, "BSTAR": 0.00079666975, "MEAN_MOTION_DOT": 2.532e-05, "MEAN_MOTION_DDOT": 0}, "tle": {"line1": "1 36269U 99025DWW 25348.06170958  .00002532  00000+0  79667-3 0  9998", "line2": "2 36269  99.1079 290.0784 0233107 275.9651  81.5008 14.27043075877359"}}, "geometry": {"type": "Point", "coordinates": [112.66202759237366, -13.483028800874713]}}, {"type": "Feature", "properties": {"norad_id": 36272, "name": "FENGYUN 1C DEB", "group": "fengyun-1c-debris", "lat": 70.99009821858672, "lon": -158.73420727066375, "alt_km": 948.7619527163051, "timestamp": "2025-12-18T15:47:11.511592+00:00", "meta": {"OBJECT_NAME": "FENGYUN 1C DEB", "OBJECT_ID": "1999-025DWZ", "EPOCH": "2025-12-15T09:29:34.780416", "MEAN_MOTION": 14.17259115, "ECCENTRICITY": 0.01679127, "INCLINATION": 99.1362, "RA_OF_ASC_NODE": 225.7589, "ARG_OF_PERICENTER": 260.5869, "MEAN_ANOMALY": 97.6289, "EPHEMERIS_TYPE": 0, "CLASSIFICATION_TYPE": "U", "NORAD_CAT_ID": 36272, "ELEMENT_SET_NO": 999, "REV_AT_EPOCH": 63654, "BSTAR": 0.00052291356, "MEAN_MOTION_DOT": 1.164e-05, "MEAN_MOTION_DDOT": 0}, "tle": {"line1": "1 36272U 99025DWZ 25349.39554144  .00001164  00000+0  52291-3 0  9996", "line2": "2 36272  99.1362 225.7589 0167912 260.5869  97.6289 14.17259115636543"}}, "geometry": {"type": "Point", "coordinates": [-158.73420727066375, 70.99009821858672]}}]}